H2SAT (HEINRICH HERTZ)  
1 57213U 23093A   26169.60986911 -.00000004  00000+0  00000+0 0  9992
2 57213   0.0587 104.5799 0000843  91.9025 290.6226  1.00270922 10939
SYRACUSE 4B             
1 57214U 23093B   26169.60848242 -.00000060  00000+0  00000+0 0  9999
2 57214   0.0166  22.2211 0000227 152.7966 304.4371  1.00269436  6987
JUPITER 3 (ECHOSTAR 24) 
1 57479U 23108A   26169.52351566  .00000000  00000+0  00000+0 0  9991
2 57479   0.0215 355.2271 0001267  87.4858 277.3015  1.00268776 10657
GALAXY 37 (G-37)        
1 57493U 23112A   26169.65585102  .00000042  00000+0  00000+0 0  9997
2 57493   0.0185 340.0371 0001894 104.8050 291.1539  1.00269676 10550
LUDI TANCE-4 01A        
1 57624U 23120A   26169.05713873 -.00000180  00000+0  00000+0 0  9998
2 57624  15.1019 193.9396 0001150  43.3474 139.2590  1.00268641 10553
TJS-10                  
1 58204U 23169A   26168.80067502 -.00000256  00000+0  00000+0 0  9993
2 58204   2.5467  80.4827 0003814 110.1676  96.0447  1.00274368  9541
ZHONGXING-6E            
1 58253U 23172A   26169.64054493 -.00000368  00000+0  00000+0 0  9993
2 58253   0.0423  89.0862 0002748 352.8276 171.0863  1.00270690  9674
YAOGAN-41               
1 58582U 23197A   26169.68931720 -.00000368  00000+0  00000+0 0  9996
2 58582   3.1252 313.1784 0014042 193.7564 131.3356  1.00269425  9332
OVZON-3                 
1 58698U 24003A   26169.47899277  .00000045  00000+0  00000+0 0  9999
2 58698   0.0139  53.8674 0000364 144.1579 300.8094  1.00272477  7469
INSAT-3DS               
1 58990U 24033A   26169.73613456 -.00000162  00000+0  00000+0 0  9990
2 58990   0.0452 107.1760 0001084 328.4251 178.4754  1.00271113 47085
MERAH PUTIH 2           
1 58995U 24035A   26169.63209807  .00000000  00000+0  00000+0 0  9997
2 58995   0.0162 354.8306 0001045  82.1412 170.3998  1.00266611  8608
TJS-11                  
1 59020U 24037A   26169.72144389 -.00000370  00000+0  00000+0 0  9993
2 59020   4.1969 327.1173 0003171 106.4105 205.7627  1.00274947  8595
HULIANWAN GAOGUI-01 (H*)
1 59069U 24040A   26169.04604534  .00000150  00000+0  00000+0 0  9993
2 59069   0.0671 331.6116 0002834  65.8323 278.9846  1.00271503  7336
EUTELSAT 36D            
1 59346U 24059A   26169.61680247  .00000149  00000+0  00000+0 0  9997
2 59346   0.0179  26.3715 0000107 178.0969 320.3048  1.00269553  8164
PAKSAT-MM1              
1 59915U 24104A   26168.69049662  .00000148  00000+0  00000+0 0  9996
2 59915   0.0358  87.0267 0002563 346.0661 119.6318  1.00266860  7532
ASTRA 1P (SES-24)       
1 60086U 24115A   26169.61350911  .00000113  00000+0  00000+0 0  9996
2 60086   0.0576 354.9073 0000904 341.5376 170.4799  1.00269660  7210
GOES 19                 
1 60133U 24119A   26169.59478904 -.00000254  00000+0  00000+0 0  9990
2 60133   0.0409 169.8991 0000353   4.4442 231.4208  1.00270829  6971
ZHONGXING-3A            
1 60179U 24122A   26168.85938175 -.00000319  00000+0  00000+0 0  9995
2 60179   0.0418 104.0163 0001093  21.3241 191.7088  1.00271597  7316
TURKSAT 6A              
1 60233U 24127A   26169.54678666  .00000140  00000+0  00000+0 0  9995
2 60233   0.0523 189.1834 0001490 302.3763  14.0483  1.00270960  7033
HULIANWAN GAOGUI-02 (H*)
1 60327U 24135A   26168.51850487 -.00000179  00000+0  00000+0 0  9990
2 60327   0.0433   1.4713 0007308   5.2904 238.8047  1.00267686  7504
ZHONGXING-4A            
1 60606U 24151A   26169.69456427 -.00000368  00000+0  00000+0 0  9994
2 60606   1.3095 270.8201 0000065 149.4196 214.9577  1.00272916  6776
HULIANWAN GAOGUI-03 (H*)
1 61503U 24181A   26168.40600354 -.00000246  00000+0  00000+0 0  9997
2 61503   0.0466   2.9842 0001152  86.9142 244.7856  1.00271733  6823
DSN-3 (KIRAMEKI-3)      
1 61733U 24198A   26169.63336632 -.00000256  00000+0  00000+0 0  9992
2 61733   0.0154  30.8698 0000450  65.8321 182.2379  1.00271348  5935
KOREASAT 6A             
1 61910U 24206A   26169.66066867 -.00000368  00000+0  00000+0 0  9996
2 61910   0.0199  86.2710 0000782 334.2454 200.2276  1.00269832  5852
OPTUS-X (ADS-01)        
1 62006U 24212A   26169.62753024 -.00000150  00000+0  00000+0 0  9993
2 62006   0.0172 299.0296 0001886 193.9884 156.1292  1.00270221  5778
GSAT-N2 (GSAT-20)       
1 62028U 24214A   26169.55181333 -.00000025  00000+0  00000+0 0  9990
2 62028   0.0439 111.0984 0001861 325.5139  96.7777  1.00270144  5911
SXM-9                   
1 62259U 24234A   26169.59288235 -.00000211  00000+0  00000+0 0  9998
2 62259   0.0126 348.3630 0005060 327.2499  79.4852  1.00270648  5580
TJS-12                  
1 62374U 24246A   26169.63878253 -.00000238  00000+0  00000+0 0  9998
2 62374   0.6666 299.3391 0002055  82.6110 261.4181  1.00269283  5575
NUVIEW ALPHA            
1 62455U 24252B   26169.45065263 -.00000222  00000+0  00000+0 0  9997
2 62455   0.0516  29.9065 0001234  45.8840 270.0592  1.00277816  3837
AGILA                   
1 62456U 24252C   26169.62753024 -.00000188  00000+0  00000+0 0  9997
2 62456   0.0614 128.2218 0001148 330.1018 186.6088  1.00271192  5173
NUVIEW BRAVO            
1 62457U 24252D   26169.52199986 -.00000221  00000+0  00000+0 0  9996
2 62457   0.0712 150.7092 0002061 331.4198 249.4262  1.00274728  3809
THURAYA-4               
1 62483U 25001A   26169.04821201  .00000133  00000+0  00000+0 0  9998
2 62483   0.0270  66.4492 0000193 212.2121  49.2922  1.00272366  4187
