OBJECT_NAME,OBJECT_ID,EPOCH,MEAN_MOTION,ECCENTRICITY,INCLINATION,RA_OF_ASC_NODE,ARG_OF_PERICENTER,MEAN_ANOMALY,EPHEMERIS_TYPE,CLASSIFICATION_TYPE,NORAD_CAT_ID,ELEMENT_SET_NO,REV_AT_EPOCH,BSTAR,MEAN_MOTION_DOT,MEAN_MOTION_DDOT
H2SAT (HEINRICH HERTZ),2023-093A,2026-06-18T14:38:12.691104,1.00270922,.0000843,0.0587,104.5799,91.9025,290.6226,0,U,57213,999,1093,0,-.4E-7,0
SYRACUSE 4B,2023-093B,2026-06-18T14:36:12.881088,1.00269436,.0000227,0.0166,22.2211,152.7966,304.4371,0,U,57214,999,698,0,-.6E-6,0
JUPITER 3 (ECHOSTAR 24),2023-108A,2026-06-18T12:33:51.753024,1.00268776,.0001267,0.0215,355.2271,87.4858,277.3015,0,U,57479,999,1065,0,0,0
GALAXY 37 (G-37),2023-112A,2026-06-18T15:44:25.528128,1.00269676,.0001894,0.0185,340.0371,104.8050,291.1539,0,U,57493,999,1055,0,.42E-6,0
LUDI TANCE-4 01A,2023-120A,2026-06-18T01:22:16.786272,1.00268641,.00011505,15.1019,193.9396,43.3474,139.2590,0,U,57624,999,1055,0,-.18E-5,0
TJS-10,2023-169A,2026-06-17T19:12:58.321728,1.00274368,.0003814,2.5467,80.4827,110.1676,96.0447,0,U,58204,999,954,0,-.256E-5,0
ZHONGXING-6E,2023-172A,2026-06-18T15:22:23.081952,1.00270690,.0002748,0.0423,89.0862,352.8276,171.0863,0,U,58253,999,967,0,-.368E-5,0
YAOGAN-41,2023-197A,2026-06-18T16:32:37.006080,1.00269425,.0014042,3.1252,313.1784,193.7564,131.3356,0,U,58582,999,933,0,-.368E-5,0
OVZON-3,2024-003A,2026-06-18T11:29:44.975328,1.00272477,.0000364,0.0139,53.8674,144.1579,300.8094,0,U,58698,999,746,0,.45E-6,0
INSAT-3DS,2024-033A,2026-06-18T17:40:02.025984,1.00271113,.0001084,0.0452,107.1760,328.4251,178.4754,0,U,58990,999,4708,0,-.162E-5,0
MERAH PUTIH 2,2024-035A,2026-06-18T15:10:13.273248,1.00266611,.0001045,0.0162,354.8306,82.1412,170.3998,0,U,58995,999,860,0,0,0
TJS-11,2024-037A,2026-06-18T17:18:52.752096,1.00274947,.0003171,4.1969,327.1173,106.4105,205.7627,0,U,59020,999,859,0,-.37E-5,0
HULIANWAN GAOGUI-01 (HG-01),2024-040A,2026-06-18T01:06:18.317376,1.00271503,.00028349,0.0671,331.6116,65.8323,278.9846,0,U,59069,999,733,0,.15E-5,0
EUTELSAT 36D,2024-059A,2026-06-18T14:48:11.733408,1.00269553,.0000107,0.0179,26.3715,178.0969,320.3048,0,U,59346,999,816,0,.149E-5,0
PAKSAT-MM1,2024-104A,2026-06-17T16:34:18.907968,1.00266860,.00025638,0.0358,87.0267,346.0661,119.6318,0,U,59915,999,753,0,.148E-5,0
ASTRA 1P (SES-24),2024-115A,2026-06-18T14:43:27.187104,1.00269660,.0000904,0.0576,354.9073,341.5376,170.4799,0,U,60086,999,721,0,.113E-5,0
GOES 19,2024-119A,2026-06-18T14:16:29.773056,1.00270829,.0000353,0.0409,169.8991,4.4442,231.4208,0,U,60133,999,697,0,-.254E-5,0
ZHONGXING-3A,2024-122A,2026-06-17T20:37:30.583200,1.00271597,.0001093,0.0418,104.0163,21.3241,191.7088,0,U,60179,999,731,0,-.319E-5,0
TURKSAT 6A,2024-127A,2026-06-18T13:07:22.367424,1.00270960,.000149,0.0523,189.1834,302.3763,14.0483,0,U,60233,999,703,0,.14E-5,0
HULIANWAN GAOGUI-02 (HG-02),2024-135A,2026-06-17T12:26:38.820768,1.00267686,.0007308,0.0433,1.4713,5.2904,238.8047,0,U,60327,999,750,0,-.179E-5,0
ZHONGXING-4A,2024-151A,2026-06-18T16:40:10.352928,1.00272916,.0000065,1.3095,270.8201,149.4196,214.9577,0,U,60606,999,677,0,-.368E-5,0
HULIANWAN GAOGUI-03 (HG-03),2024-181A,2026-06-17T09:44:38.705856,1.00271733,.0001152,0.0466,2.9842,86.9142,244.7856,0,U,61503,999,682,0,-.246E-5,0
DSN-3 (KIRAMEKI-3),2024-198A,2026-06-18T15:12:02.850048,1.00271348,.000045,0.0154,30.8698,65.8321,182.2379,0,U,61733,999,593,0,-.256E-5,0
KOREASAT 6A,2024-206A,2026-06-18T15:51:21.773088,1.00269832,.0000782,0.0199,86.2710,334.2454,200.2276,0,U,61910,999,585,0,-.368E-5,0
OPTUS-X (ADS-01),2024-212A,2026-06-18T15:03:38.612736,1.00270221,.0001886,0.0172,299.0296,193.9884,156.1292,0,U,62006,999,577,0,-.15E-5,0
GSAT-N2 (GSAT-20),2024-214A,2026-06-18T13:14:36.671712,1.00270144,.0001861,0.0439,111.0984,325.5139,96.7777,0,U,62028,999,591,0,-.25E-6,0
SXM-9,2024-234A,2026-06-18T14:13:45.035040,1.00270648,.000506,0.0126,348.3630,327.2499,79.4852,0,U,62259,999,558,0,-.211E-5,0
TJS-12,2024-246A,2026-06-18T15:19:50.810592,1.00269283,.0002055,0.6666,299.3391,82.6110,261.4181,0,U,62374,999,557,0,-.238E-5,0
NUVIEW ALPHA,2024-252B,2026-06-18T10:48:56.387232,1.00277816,.0001234,0.0516,29.9065,45.8840,270.0592,0,U,62455,999,383,0,-.222E-5,0
AGILA,2024-252C,2026-06-18T15:03:38.612736,1.00271192,.0001148,0.0614,128.2218,330.1018,186.6088,0,U,62456,999,517,0,-.188E-5,0
NUVIEW BRAVO,2024-252D,2026-06-18T12:31:40.787904,1.00274728,.0002061,0.0712,150.7092,331.4198,249.4262,0,U,62457,999,380,0,-.221E-5,0
THURAYA-4,2025-001A,2026-06-18T01:09:25.517664,1.00272366,.00001932,0.0270,66.4492,212.2121,49.2922,0,U,62483,999,418,0,.133E-5,0
